HULIANWANG DIGUI-17     
1 62977U 25030G   26088.19419100 -.00000073  00000+0  10923-3 0  9998
2 62977  50.0052 162.4755 0001022 245.1971 114.8795 13.29323699 55225
HULIANWANG DIGUI-18     
1 62978U 25030H   26088.18581148 -.00000073  00000+0  11043-3 0  9994
2 62978  50.0056 162.4429 0001069 246.8962 113.1797 13.29324329 55222
HULIANWANG DIGUI-19     
1 62979U 25030J   26088.21896260 -.00000082  00000+0  90027-4 0  9993
2 62979  50.0041 162.5687 0001068 239.5678 120.5089 13.29323086 55221
HULIANWANG DIGUI-20     
1 63687U 25086A   26088.17022427  .00000060  00000+0  10575-3 0  9996
2 63687  86.5104 340.0891 0002069  84.1206 276.0163 13.24411414 44287
HULIANWANG DIGUI-21     
1 63688U 25086B   26088.17770675  .00000069  00000+0  12573-3 0  9991
2 63688  86.5133 340.1224 0002060  87.7740 272.3629 13.24410635 44273
HULIANWANG DIGUI-22     
1 63689U 25086C   26088.18526737  .00000069  00000+0  12621-3 0  9995
2 63689  86.5098 340.0148 0002060  83.2684 276.8685 13.24411356 44278
HULIANWANG DIGUI-23     
1 63690U 25086D   26088.20032206  .00000059  00000+0  10381-3 0  9993
2 63690  86.5140 340.1559 0002047  83.8681 276.2686 13.24410835 44279
HULIANWANG DIGUI-24     
1 63691U 25086E   26088.20795548  .00000047  00000+0  74611-4 0  9993
2 63691  86.5147 340.1816 0002103  86.2307 273.9067 13.24410714 44271
HULIANWANG DIGUI-25     
1 63692U 25086F   26088.21547095  .00000038  00000+0  54887-4 0  9990
2 63692  86.5085 339.9868 0002002  85.1049 275.0313 13.24410756 44278
HULIANWANG DIGUI-26     
1 63693U 25086G   26088.19270609  .00000065  00000+0  11798-3 0  9995
2 63693  86.5134 340.1321 0002258  87.7935 272.3457 13.24410618 44273
HULIANWANG DIGUI-27     
1 63694U 25086H   26088.14756949  .00000040  00000+0  59206-4 0  9997
2 63694  86.5095 340.0463 0002069  85.8626 274.2744 13.24411218 44268
HULIANWANG DIGUI-28     
1 63695U 25086J   26088.16258847  .00000056  00000+0  96428-4 0  9998
2 63695  86.5059 339.9376 0002082  82.6689 277.4682 13.24411169 44269
HULIANWANG DIGUI-29     
1 63696U 25086K   26088.15511398  .00000039  00000+0  55651-4 0  9995
2 63696  86.5087 340.0266 0001996  86.6324 273.5038 13.24412425 44263
HULIANWANG DIGUI-30     
1 64283U 25121A   26088.16248654  .00000051  00000+0  84112-4 0  9999
2 64283  86.4994  40.5501 0001875  71.2206 288.9131 13.24409228 39569
HULIANWANG DIGUI-31     
1 64284U 25121B   26088.15518669  .00000042  00000+0  63637-4 0  9994
2 64284  86.5015  40.6078 0001871  71.0652 289.0685 13.24409842 39562
HULIANWANG DIGUI-32     
1 64285U 25121C   26088.14722616  .00000057  00000+0  99186-4 0  9997
2 64285  86.4956  40.4264 0001943  74.2089 285.9260 13.24409107 39568
