[{"OBJECT_NAME":"HULIANWANG DIGUI-17","OBJECT_ID":"2025-030G","EPOCH":"2026-03-29T04:39:38.102400","MEAN_MOTION":13.29323699,"ECCENTRICITY":0.0001022,"INCLINATION":50.0052,"RA_OF_ASC_NODE":162.4755,"ARG_OF_PERICENTER":245.1971,"MEAN_ANOMALY":114.8795,"EPHEMERIS_TYPE":0,"CLASSIFICATION_TYPE":"U","NORAD_CAT_ID":62977,"ELEMENT_SET_NO":999,"REV_AT_EPOCH":5522,"BSTAR":0.00010923,"MEAN_MOTION_DOT":-7.3e-7,"MEAN_MOTION_DDOT":0},{"OBJECT_NAME":"HULIANWANG DIGUI-18","OBJECT_ID":"2025-030H","EPOCH":"2026-03-29T04:27:34.111872","MEAN_MOTION":13.29324329,"ECCENTRICITY":0.0001069,"INCLINATION":50.0056,"RA_OF_ASC_NODE":162.4429,"ARG_OF_PERICENTER":246.8962,"MEAN_ANOMALY":113.1797,"EPHEMERIS_TYPE":0,"CLASSIFICATION_TYPE":"U","NORAD_CAT_ID":62978,"ELEMENT_SET_NO":999,"REV_AT_EPOCH":5522,"BSTAR":0.00011043,"MEAN_MOTION_DOT":-7.3e-7,"MEAN_MOTION_DDOT":0},{"OBJECT_NAME":"HULIANWANG DIGUI-19","OBJECT_ID":"2025-030J","EPOCH":"2026-03-29T05:15:18.368640","MEAN_MOTION":13.29323086,"ECCENTRICITY":0.0001068,"INCLINATION":50.0041,"RA_OF_ASC_NODE":162.5687,"ARG_OF_PERICENTER":239.5678,"MEAN_ANOMALY":120.5089,"EPHEMERIS_TYPE":0,"CLASSIFICATION_TYPE":"U","NORAD_CAT_ID":62979,"ELEMENT_SET_NO":999,"REV_AT_EPOCH":5522,"BSTAR":9.0027e-5,"MEAN_MOTION_DOT":-8.2e-7,"MEAN_MOTION_DDOT":0},{"OBJECT_NAME":"HULIANWANG DIGUI-20","OBJECT_ID":"2025-086A","EPOCH":"2026-03-29T04:05:07.376928","MEAN_MOTION":13.24411414,"ECCENTRICITY":0.0002069,"INCLINATION":86.5104,"RA_OF_ASC_NODE":340.0891,"ARG_OF_PERICENTER":84.1206,"MEAN_ANOMALY":276.0163,"EPHEMERIS_TYPE":0,"CLASSIFICATION_TYPE":"U","NORAD_CAT_ID":63687,"ELEMENT_SET_NO":999,"REV_AT_EPOCH":4428,"BSTAR":0.00010575,"MEAN_MOTION_DOT":6.0e-7,"MEAN_MOTION_DDOT":0},{"OBJECT_NAME":"HULIANWANG DIGUI-21","OBJECT_ID":"2025-086B","EPOCH":"2026-03-29T04:15:53.863200","MEAN_MOTION":13.24410635,"ECCENTRICITY":0.000206,"INCLINATION":86.5133,"RA_OF_ASC_NODE":340.1224,"ARG_OF_PERICENTER":87.774,"MEAN_ANOMALY":272.3629,"EPHEMERIS_TYPE":0,"CLASSIFICATION_TYPE":"U","NORAD_CAT_ID":63688,"ELEMENT_SET_NO":999,"REV_AT_EPOCH":4427,"BSTAR":0.00012573,"MEAN_MOTION_DOT":6.9e-7,"MEAN_MOTION_DDOT":0},{"OBJECT_NAME":"HULIANWANG DIGUI-22","OBJECT_ID":"2025-086C","EPOCH":"2026-03-29T04:26:47.100768","MEAN_MOTION":13.24411356,"ECCENTRICITY":0.000206,"INCLINATION":86.5098,"RA_OF_ASC_NODE":340.0148,"ARG_OF_PERICENTER":83.2684,"MEAN_ANOMALY":276.8685,"EPHEMERIS_TYPE":0,"CLASSIFICATION_TYPE":"U","NORAD_CAT_ID":63689,"ELEMENT_SET_NO":999,"REV_AT_EPOCH":4427,"BSTAR":0.00012621,"MEAN_MOTION_DOT":6.9e-7,"MEAN_MOTION_DDOT":0},{"OBJECT_NAME":"HULIANWANG DIGUI-23","OBJECT_ID":"2025-086D","EPOCH":"2026-03-29T04:48:27.825984","MEAN_MOTION":13.24410835,"ECCENTRICITY":0.0002047,"INCLINATION":86.514,"RA_OF_ASC_NODE":340.1559,"ARG_OF_PERICENTER":83.8681,"MEAN_ANOMALY":276.2686,"EPHEMERIS_TYPE":0,"CLASSIFICATION_TYPE":"U","NORAD_CAT_ID":63690,"ELEMENT_SET_NO":999,"REV_AT_EPOCH":4427,"BSTAR":0.00010381,"MEAN_MOTION_DOT":5.9e-7,"MEAN_MOTION_DDOT":0},{"OBJECT_NAME":"HULIANWANG DIGUI-24","OBJECT_ID":"2025-086E","EPOCH":"2026-03-29T04:59:27.353472","MEAN_MOTION":13.24410714,"ECCENTRICITY":0.0002103,"INCLINATION":86.5147,"RA_OF_ASC_NODE":340.1816,"ARG_OF_PERICENTER":86.2307,"MEAN_ANOMALY":273.9067,"EPHEMERIS_TYPE":0,"CLASSIFICATION_TYPE":"U","NORAD_CAT_ID":63691,"ELEMENT_SET_NO":999,"REV_AT_EPOCH":4427,"BSTAR":7.4611e-5,"MEAN_MOTION_DOT":4.7e-7,"MEAN_MOTION_DDOT":0},{"OBJECT_NAME":"HULIANWANG DIGUI-25","OBJECT_ID":"2025-086F","EPOCH":"2026-03-29T05:10:16.690080","MEAN_MOTION":13.24410756,"ECCENTRICITY":0.0002002,"INCLINATION":86.5085,"RA_OF_ASC_NODE":339.9868,"ARG_OF_PERICENTER":85.1049,"MEAN_ANOMALY":275.0313,"EPHEMERIS_TYPE":0,"CLASSIFICATION_TYPE":"U","NORAD_CAT_ID":63692,"ELEMENT_SET_NO":999,"REV_AT_EPOCH":4427,"BSTAR":5.4887e-5,"MEAN_MOTION_DOT":3.8e-7,"MEAN_MOTION_DDOT":0},{"OBJECT_NAME":"HULIANWANG DIGUI-26","OBJECT_ID":"2025-086G","EPOCH":"2026-03-29T04:37:29.806176","MEAN_MOTION":13.24410618,"ECCENTRICITY":0.0002258,"INCLINATION":86.5134,"RA_OF_ASC_NODE":340.1321,"ARG_OF_PERICENTER":87.7935,"MEAN_ANOMALY":272.3457,"EPHEMERIS_TYPE":0,"CLASSIFICATION_TYPE":"U","NORAD_CAT_ID":63693,"ELEMENT_SET_NO":999,"REV_AT_EPOCH":4427,"BSTAR":0.00011798,"MEAN_MOTION_DOT":6.5e-7,"MEAN_MOTION_DDOT":0},{"OBJECT_NAME":"HULIANWANG DIGUI-27","OBJECT_ID":"2025-086H","EPOCH":"2026-03-29T03:32:30.003936","MEAN_MOTION":13.24411218,"ECCENTRICITY":0.0002069,"INCLINATION":86.5095,"RA_OF_ASC_NODE":340.0463,"ARG_OF_PERICENTER":85.8626,"MEAN_ANOMALY":274.2744,"EPHEMERIS_TYPE":0,"CLASSIFICATION_TYPE":"U","NORAD_CAT_ID":63694,"ELEMENT_SET_NO":999,"REV_AT_EPOCH":4426,"BSTAR":5.9206e-5,"MEAN_MOTION_DOT":4.0e-7,"MEAN_MOTION_DDOT":0},{"OBJECT_NAME":"HULIANWANG DIGUI-28","OBJECT_ID":"2025-086J","EPOCH":"2026-03-29T03:54:07.643808","MEAN_MOTION":13.24411169,"ECCENTRICITY":0.0002082,"INCLINATION":86.5059,"RA_OF_ASC_NODE":339.9376,"ARG_OF_PERICENTER":82.6689,"MEAN_ANOMALY":277.4682,"EPHEMERIS_TYPE":0,"CLASSIFICATION_TYPE":"U","NORAD_CAT_ID":63695,"ELEMENT_SET_NO":999,"REV_AT_EPOCH":4426,"BSTAR":9.6428e-5,"MEAN_MOTION_DOT":5.6e-7,"MEAN_MOTION_DDOT":0},{"OBJECT_NAME":"HULIANWANG DIGUI-29","OBJECT_ID":"2025-086K","EPOCH":"2026-03-29T03:43:21.847872","MEAN_MOTION":13.24412425,"ECCENTRICITY":0.0001996,"INCLINATION":86.5087,"RA_OF_ASC_NODE":340.0266,"ARG_OF_PERICENTER":86.6324,"MEAN_ANOMALY":273.5038,"EPHEMERIS_TYPE":0,"CLASSIFICATION_TYPE":"U","NORAD_CAT_ID":63696,"ELEMENT_SET_NO":999,"REV_AT_EPOCH":4426,"BSTAR":5.5651e-5,"MEAN_MOTION_DOT":3.9e-7,"MEAN_MOTION_DDOT":0},{"OBJECT_NAME":"HULIANWANG DIGUI-30","OBJECT_ID":"2025-121A","EPOCH":"2026-03-29T03:53:58.837056","MEAN_MOTION":13.24409228,"ECCENTRICITY":0.0001875,"INCLINATION":86.4994,"RA_OF_ASC_NODE":40.5501,"ARG_OF_PERICENTER":71.2206,"MEAN_ANOMALY":288.9131,"EPHEMERIS_TYPE":0,"CLASSIFICATION_TYPE":"U","NORAD_CAT_ID":64283,"ELEMENT_SET_NO":999,"REV_AT_EPOCH":3956,"BSTAR":8.4112e-5,"MEAN_MOTION_DOT":5.1e-7,"MEAN_MOTION_DDOT":0},{"OBJECT_NAME":"HULIANWANG DIGUI-31","OBJECT_ID":"2025-121B","EPOCH":"2026-03-29T03:43:28.130016","MEAN_MOTION":13.24409842,"ECCENTRICITY":0.0001871,"INCLINATION":86.5015,"RA_OF_ASC_NODE":40.6078,"ARG_OF_PERICENTER":71.0652,"MEAN_ANOMALY":289.0685,"EPHEMERIS_TYPE":0,"CLASSIFICATION_TYPE":"U","NORAD_CAT_ID":64284,"ELEMENT_SET_NO":999,"REV_AT_EPOCH":3956,"BSTAR":6.3637e-5,"MEAN_MOTION_DOT":4.2e-7,"MEAN_MOTION_DDOT":0},{"OBJECT_NAME":"HULIANWANG DIGUI-32","OBJECT_ID":"2025-121C","EPOCH":"2026-03-29T03:32:00.340224","MEAN_MOTION":13.24409107,"ECCENTRICITY":0.0001943,"INCLINATION":86.4956,"RA_OF_ASC_NODE":40.4264,"ARG_OF_PERICENTER":74.2089,"MEAN_ANOMALY":285.926,"EPHEMERIS_TYPE":0,"CLASSIFICATION_TYPE":"U","NORAD_CAT_ID":64285,"ELEMENT_SET_NO":999,"REV_AT_EPOCH":3956,"BSTAR":9.9186e-5,"MEAN_MOTION_DOT":5.7e-7,"MEAN_MOTION_DDOT":0}]
